{
  "norad_id": 54644,
  "name": "ONEWEB-0539",
  "history": [
    {
      "epoch": "2026-03-28T17:59:50.921088Z",
      "apogee_km": 1179.1316990800105,
      "perigee_km": 1176.376821126576,
      "latitude_deg": -4.84177917192734e-05,
      "longitude_deg": 163.86916101973128,
      "height_km": 1180.9938906402792,
      "semi_major_axis_km": 7555.891260103293,
      "eccentricity": 0.0001823,
      "inclination_deg": 87.9175,
      "raan_deg": 259.9972,
      "arg_perigee_deg": 104.1965,
      "mean_anomaly_deg": 255.9371,
      "mean_motion_rev_day": 13.21825766
    },
    {
      "epoch": "2026-03-29T04:53:51.869184Z",
      "apogee_km": 1179.0212702736471,
      "perigee_km": 1176.4719151494664,
      "latitude_deg": 2.6319299153346324e-05,
      "longitude_deg": -0.1731445796231695,
      "height_km": 1180.9773235502266,
      "semi_major_axis_km": 7555.883592711557,
      "eccentricity": 0.0001687,
      "inclination_deg": 87.9176,
      "raan_deg": 259.9065,
      "arg_perigee_deg": 104.9429,
      "mean_anomaly_deg": 255.1892,
      "mean_motion_rev_day": 13.21827778
    },
    {
      "epoch": "2026-03-30T04:30:53.892864Z",
      "apogee_km": 1179.0132435685045,
      "perigee_km": 1176.4785470924362,
      "latitude_deg": -6.01033603559482e-05,
      "longitude_deg": 4.401895793946617,
      "height_km": 1180.9764072251423,
      "semi_major_axis_km": 7555.88289533047,
      "eccentricity": 0.00016773,
      "inclination_deg": 87.9178,
      "raan_deg": 259.7099,
      "arg_perigee_deg": 105.0196,
      "mean_anomaly_deg": 255.1123,
      "mean_motion_rev_day": 13.21827961
    },
    {
      "epoch": "2026-03-30T11:46:54.538464Z",
      "apogee_km": 1179.0258659509336,
      "perigee_km": 1176.46427081211,
      "latitude_deg": 2.54575340969228e-05,
      "longitude_deg": -104.95962952189042,
      "height_km": 1180.9745978773663,
      "semi_major_axis_km": 7555.882068381521,
      "eccentricity": 0.00016951,
      "inclination_deg": 87.918,
      "raan_deg": 259.6495,
      "arg_perigee_deg": 104.8148,
      "mean_anomaly_deg": 255.3174,
      "mean_motion_rev_day": 13.21828178
    },
    {
      "epoch": "2026-03-30T20:51:55.340928Z",
      "apogee_km": 1179.030290288727,
      "perigee_km": 1176.459930312446,
      "latitude_deg": 7.312346958948179e-05,
      "longitude_deg": 118.33848064049171,
      "height_km": 1180.9786681444261,
      "semi_major_axis_km": 7555.882110300587,
      "eccentricity": 0.00017009,
      "inclination_deg": 87.918,
      "raan_deg": 259.574,
      "arg_perigee_deg": 104.9496,
      "mean_anomaly_deg": 255.1827,
      "mean_motion_rev_day": 13.21828167
    },
    {
      "epoch": "2026-03-31T16:50:57.069888Z",
      "apogee_km": 1179.0458520519642,
      "perigee_km": 1176.4436063844223,
      "latitude_deg": -5.776857631864686e-05,
      "longitude_deg": 177.59416698083226,
      "height_km": 1180.9832552402102,
      "semi_major_axis_km": 7555.881729218193,
      "eccentricity": 0.0001722,
      "inclination_deg": 87.9181,
      "raan_deg": 259.4076,
      "arg_perigee_deg": 104.9892,
      "mean_anomaly_deg": 255.1432,
      "mean_motion_rev_day": 13.21828267
    },
    {
      "epoch": "2026-04-01T18:16:59.251296Z",
      "apogee_km": 1179.0669780288827,
      "perigee_km": 1176.422419434326,
      "latitude_deg": 4.744168943247886e-05,
      "longitude_deg": 154.82884817307598,
      "height_km": 1180.992280866937,
      "semi_major_axis_km": 7555.881698731604,
      "eccentricity": 0.000175,
      "inclination_deg": 87.9184,
      "raan_deg": 259.1959,
      "arg_perigee_deg": 105.1526,
      "mean_anomaly_deg": 254.9802,
      "mean_motion_rev_day": 13.21828275
    },
    {
      "epoch": "2026-04-02T17:54:02.592576Z",
      "apogee_km": 1178.9871288393024,
      "perigee_km": 1176.597943919899,
      "latitude_deg": 8.432269492552389e-05,
      "longitude_deg": 159.3986881675636,
      "height_km": 1181.0660590338296,
      "semi_major_axis_km": 7555.929536379601,
      "eccentricity": 0.0001581,
      "inclination_deg": 87.9188,
      "raan_deg": 258.9996,
      "arg_perigee_deg": 108.1067,
      "mean_anomaly_deg": 252.024,
      "mean_motion_rev_day": 13.21815722
    },
    {
      "epoch": "2026-04-02T21:32:03.340896Z",
      "apogee_km": 1179.0581344117327,
      "perigee_km": 1176.5489576752016,
      "latitude_deg": 1.0365009741257905e-05,
      "longitude_deg": 104.71574336475597,
      "height_km": 1181.0504285550887,
      "semi_major_axis_km": 7555.940546043466,
      "eccentricity": 0.00016604,
      "inclination_deg": 87.9183,
      "raan_deg": 258.969,
      "arg_perigee_deg": 105.9514,
      "mean_anomaly_deg": 254.1803,
      "mean_motion_rev_day": 13.21812833
    },
    {
      "epoch": "2026-04-03T17:31:06.343392Z",
      "apogee_km": 1179.0510622401807,
      "perigee_km": 1176.5878204403043,
      "latitude_deg": 4.362000658792264e-05,
      "longitude_deg": 163.9662135939914,
      "height_km": 1181.059519159242,
      "semi_major_axis_km": 7555.956441340242,
      "eccentricity": 0.000163,
      "inclination_deg": 87.9181,
      "raan_deg": 258.8027,
      "arg_perigee_deg": 105.9258,
      "mean_anomaly_deg": 254.2056,
      "mean_motion_rev_day": 13.21808662
    },
    {
      "epoch": "2026-04-04T04:25:07.994784Z",
      "apogee_km": 1179.0876890305371,
      "perigee_km": 1176.5647529110547,
      "latitude_deg": -3.7481004805275246e-05,
      "longitude_deg": -0.07903626704769141,
      "height_km": 1181.0869068448399,
      "semi_major_axis_km": 7555.963220970795,
      "eccentricity": 0.00016695,
      "inclination_deg": 87.9181,
      "raan_deg": 258.712,
      "arg_perigee_deg": 106.5153,
      "mean_anomaly_deg": 253.6164,
      "mean_motion_rev_day": 13.21806883
    },
    {
      "epoch": "2026-04-05T11:18:13.393440Z",
      "apogee_km": 1179.1964452282027,
      "perigee_km": 1176.5397538352072,
      "latitude_deg": -6.164156257858581e-07,
      "longitude_deg": -104.87682597198375,
      "height_km": 1181.1266095905155,
      "semi_major_axis_km": 7556.005099531704,
      "eccentricity": 0.0001758,
      "inclination_deg": 87.9188,
      "raan_deg": 258.4551,
      "arg_perigee_deg": 105.5724,
      "mean_anomaly_deg": 254.5604,
      "mean_motion_rev_day": 13.21795894
    },
    {
      "epoch": "2026-04-05T20:23:14.937216Z",
      "apogee_km": 1179.2035341866467,
      "perigee_km": 1176.5287090815882,
      "latitude_deg": 7.012253640770337e-05,
      "longitude_deg": 118.41818665167013,
      "height_km": 1181.1277410324458,
      "semi_major_axis_km": 7556.003121634117,
      "eccentricity": 0.000177,
      "inclination_deg": 87.9189,
      "raan_deg": 258.3796,
      "arg_perigee_deg": 105.6037,
      "mean_anomaly_deg": 254.5293,
      "mean_motion_rev_day": 13.21796413
    },
    {
      "epoch": "2026-04-06T03:39:16.236864Z",
      "apogee_km": 1179.216283889814,
      "perigee_km": 1176.5199990151386,
      "latitude_deg": -3.832776279709594e-05,
      "longitude_deg": 9.053320661238535,
      "height_km": 1181.1202535816983,
      "semi_major_axis_km": 7556.005141452476,
      "eccentricity": 0.00017842,
      "inclination_deg": 87.9187,
      "raan_deg": 258.3186,
      "arg_perigee_deg": 105.0584,
      "mean_anomaly_deg": 255.0747,
      "mean_motion_rev_day": 13.21795883
    },
    {
      "epoch": "2026-04-07T12:21:21.900384Z",
      "apogee_km": 1179.2338335421591,
      "perigee_km": 1176.5000713121708,
      "latitude_deg": 4.7330206405181286e-05,
      "longitude_deg": -123.0848837446638,
      "height_km": 1181.1383285091429,
      "semi_major_axis_km": 7556.003952427165,
      "eccentricity": 0.0001809,
      "inclination_deg": 87.9191,
      "raan_deg": 258.047,
      "arg_perigee_deg": 105.6859,
      "mean_anomaly_deg": 254.4475,
      "mean_motion_rev_day": 13.21796195
    },
    {
      "epoch": "2026-04-08T10:09:25.781184Z",
      "apogee_km": 1179.2585603206298,
      "perigee_km": 1176.4812744180817,
      "latitude_deg": 4.633677730167617e-05,
      "longitude_deg": -91.17789496899569,
      "height_km": 1181.1510945196032,
      "semi_major_axis_km": 7556.0069173693555,
      "eccentricity": 0.00018378,
      "inclination_deg": 87.9191,
      "raan_deg": 257.8655,
      "arg_perigee_deg": 105.8558,
      "mean_anomaly_deg": 254.2779,
      "mean_motion_rev_day": 13.21795417
    },
    {
      "epoch": "2026-04-09T20:40:31.361376Z",
      "apogee_km": 1179.3293787612165,
      "perigee_km": 1176.3719651864058,
      "latitude_deg": 1.7021467445685944e-05,
      "longitude_deg": 109.34393609621183,
      "height_km": 1181.1285465698534,
      "semi_major_axis_km": 7555.987671973811,
      "eccentricity": 0.0001957,
      "inclination_deg": 87.9196,
      "raan_deg": 257.5782,
      "arg_perigee_deg": 104.7429,
      "mean_anomaly_deg": 255.3922,
      "mean_motion_rev_day": 13.21800467
    },
    {
      "epoch": "2026-04-10T03:56:32.527104Z",
      "apogee_km": 1179.348272894792,
      "perigee_km": 1176.344618355487,
      "latitude_deg": -1.7888179690353487e-05,
      "longitude_deg": -0.01976785455786273,
      "height_km": 1181.1313179125868,
      "semi_major_axis_km": 7555.983445625139,
      "eccentricity": 0.00019876,
      "inclination_deg": 87.9195,
      "raan_deg": 257.5178,
      "arg_perigee_deg": 104.7886,
      "mean_anomaly_deg": 255.3468,
      "mean_motion_rev_day": 13.21801576
    },
    {
      "epoch": "2026-04-11T16:16:35.772384Z",
      "apogee_km": 1179.1564828570226,
      "perigee_km": 1176.4061285937396,
      "latitude_deg": 3.129261764645223e-05,
      "longitude_deg": 173.17251487335773,
      "height_km": 1181.0565427176218,
      "semi_major_axis_km": 7555.918305725381,
      "eccentricity": 0.000182,
      "inclination_deg": 87.9195,
      "raan_deg": 257.2158,
      "arg_perigee_deg": 105.755,
      "mean_anomaly_deg": 254.3785,
      "mean_motion_rev_day": 13.21818669
    }
  ]
}